{
"type": "FeatureCollection",
"name": "equipos_sast",
"crs": { "type": "name", "properties": { "name": "urn:ogc:def:crs:OGC:1.3:CRS84" } },
"features": [
{ "type": "Feature", "properties": { "equipo": "EQUIPO011", "solicitud": 1, "punto": "EL ZANJÓN", "direccion": "RUTA 8003 PR96+611 SENTIDO OESTE-ESTE", "sentido": null, "lon": -73.37820844, "lat": 10.31745025, "estado_solicitud": "APROBADO", "codigos": "C24, C29, C35, D02", "fecha_inicio": null, "codigo_unico": null, "solicitud_ansv": null, "direccion_ansv": null, "estado": "No operando" }, "geometry": { "type": "Point", "coordinates": [ -73.37820844, 10.31745025 ] } },
{ "type": "Feature", "properties": { "equipo": "EQUIPO012", "solicitud": 1, "punto": "EL ZANJÓN", "direccion": "RUTA 8003 PR96+611 SENTIDO ESTE-OESTE", "sentido": null, "lon": -73.37851588, "lat": 10.31789834, "estado_solicitud": "APROBADO", "codigos": "C24, C29, C35, D02", "fecha_inicio": null, "codigo_unico": null, "solicitud_ansv": null, "direccion_ansv": null, "estado": "No operando" }, "geometry": { "type": "Point", "coordinates": [ -73.37851588, 10.31789834 ] } },
{ "type": "Feature", "properties": { "equipo": "EQUIPO021", "solicitud": 2, "punto": "LOS MANGUITOS", "direccion": "DIAGONAL 21 - CARRERA 19", "sentido": "SUR-NORTE", "lon": -73.25401938, "lat": 10.46141735, "estado_solicitud": "APROBADO", "codigos": "C02, C03, C24, C29, C35, D02, D04, D05, C32", "fecha_inicio": "2026-09-02", "codigo_unico": "CU000000000908", "solicitud_ansv": "SOL0000010402", "direccion_ansv": "DIAGONAL 21 - CARRERA 19 (SENTIDO SUR - NORTE)", "estado": "Operando" }, "geometry": { "type": "Point", "coordinates": [ -73.25401938, 10.46141735 ] } },
{ "type": "Feature", "properties": { "equipo": "EQUIPO022", "solicitud": 2, "punto": "LOS MANGUITOS", "direccion": "DIAGONAL 21 - CARRERA 18E", "sentido": "NORTE-SUR", "lon": -73.25364062, "lat": 10.46242587, "estado_solicitud": "APROBADO", "codigos": "C02, C03, C24, C29, C35, D02, D04, D05, C32", "fecha_inicio": "2026-09-02", "codigo_unico": "CU000000000909", "solicitud_ansv": "SOL0000010402", "direccion_ansv": "DIAGONAL 21 - CARRERA 18E (SENTIDO NORTE - SUR)", "estado": "Operando" }, "geometry": { "type": "Point", "coordinates": [ -73.25364062, 10.46242587 ] } },
{ "type": "Feature", "properties": { "equipo": "EQUIPO031", "solicitud": 3, "punto": "MERCADO PÚBLICO", "direccion": "CALLE 21 - CARRERA 15", "sentido": "OESTE-ESTE", "lon": -73.24742903000001, "lat": 10.46396196, "estado_solicitud": "APROBADO", "codigos": "C02, C03, C24, C32, C35, D02, D04, D05", "fecha_inicio": "2026-08-27", "codigo_unico": "CU000000000907", "solicitud_ansv": "SOL0000010802", "direccion_ansv": "CALLE 21 - CARRERA 15 (SENTIDO OESTE - ESTE)", "estado": "Operando" }, "geometry": { "type": "Point", "coordinates": [ -73.24742903, 10.46396196 ] } },
{ "type": "Feature", "properties": { "equipo": "EQUIPO032", "solicitud": 3, "punto": "MERCADO PÚBLICO", "direccion": "TRANSVERSAL 12 - CALLE 20B", "sentido": "NORTE-SUR", "lon": -73.24693397, "lat": 10.46424082, "estado_solicitud": "APROBADO", "codigos": "C02, C03, C24, C32, C35, D02, D04, D05", "fecha_inicio": "2026-08-27", "codigo_unico": "CU000000000906", "solicitud_ansv": "SOL0000010802", "direccion_ansv": "TRANSVERSAL 12 - CALLE 20B (SENTIDO NORTE - SUR)", "estado": "Operando" }, "geometry": { "type": "Point", "coordinates": [ -73.24693397, 10.46424082 ] } },
{ "type": "Feature", "properties": { "equipo": "EQUIPO041", "solicitud": 4, "punto": "COLEGIO LOPERENA", "direccion": "DIAGONAL 16 - CARRERA 12", "sentido": null, "lon": -73.25000611, "lat": 10.47327816, "estado_solicitud": "APROBADO", "codigos": "C02, C03, C24, C32, C35, D02, D04, D05", "fecha_inicio": "2026-08-18", "codigo_unico": "CU000000000915", "solicitud_ansv": "SOL0000010743", "direccion_ansv": "CALLE 16 - CARRERA 12 (OESTE - ESTE)", "estado": "Operando" }, "geometry": { "type": "Point", "coordinates": [ -73.25000611, 10.47327816 ] } },
{ "type": "Feature", "properties": { "equipo": "EQUIPO042", "solicitud": 4, "punto": "COLEGIO LOPERENA", "direccion": "CARRERA 12 - CALLE 16", "sentido": null, "lon": -73.24932744, "lat": 10.47328756, "estado_solicitud": "APROBADO", "codigos": "C02, C03, C24, C32, C35, D02, D04, D05", "fecha_inicio": "2026-06-17", "codigo_unico": "CU000000000914", "solicitud_ansv": "SOL0000010743", "direccion_ansv": "CARRERA 12 - CALLE 16 (SUR - NORTE)", "estado": "Operando" }, "geometry": { "type": "Point", "coordinates": [ -73.24932744, 10.47328756 ] } },
{ "type": "Feature", "properties": { "equipo": "EQUIPO051", "solicitud": 5, "punto": "LA VIÑA", "direccion": "CARRERA 9 - CALLE 17", "sentido": null, "lon": -73.24537977, "lat": 10.47290828, "estado_solicitud": "APROBADO", "codigos": "C02, C03, C24, C35, D02, D04, D05, C32", "fecha_inicio": "2026-08-27", "codigo_unico": "CU000000000912", "solicitud_ansv": "SOL0000010882", "direccion_ansv": "CARRERA 9 - CALLE 17 (SUR - NORTE)", "estado": "Operando" }, "geometry": { "type": "Point", "coordinates": [ -73.24537977, 10.47290828 ] } },
{ "type": "Feature", "properties": { "equipo": "EQUIPO052", "solicitud": 5, "punto": "LA VIÑA", "direccion": "CALLE 17 - CARRERA 8", "sentido": null, "lon": -73.24512617000001, "lat": 10.47324331, "estado_solicitud": "APROBADO", "codigos": "C02, C03, C24, C35, D02, D04, D05, C32", "fecha_inicio": "2026-08-27", "codigo_unico": "CU000000000911", "solicitud_ansv": "SOL0000010882", "direccion_ansv": "CALLE 17 - CARRERA 8 (ESTE - OESTE)", "estado": "Operando" }, "geometry": { "type": "Point", "coordinates": [ -73.24512617, 10.47324331 ] } },
{ "type": "Feature", "properties": { "equipo": "EQUIPO061", "solicitud": 6, "punto": "COLEGIO MANUELA BELTRÁN", "direccion": "CARRERA 23 - CALLE 14C", "sentido": null, "lon": -73.26633422, "lat": 10.46566253, "estado_solicitud": "APROBADO", "codigos": "C02, C24, C29, C35, D02, D03, D05, D07, D10, C31", "fecha_inicio": null, "codigo_unico": null, "solicitud_ansv": null, "direccion_ansv": null, "estado": "No operando" }, "geometry": { "type": "Point", "coordinates": [ -73.26633422, 10.46566253 ] } },
{ "type": "Feature", "properties": { "equipo": "EQUIPO062", "solicitud": 6, "punto": "COLEGIO MANUELA BELTRÁN", "direccion": "CARRERA 23 - CALLE 14", "sentido": null, "lon": -73.26655686, "lat": 10.46714611, "estado_solicitud": "APROBADO", "codigos": "C02, C24, C29, C35, D02, D03, D05, D07, D10, C31", "fecha_inicio": null, "codigo_unico": null, "solicitud_ansv": null, "direccion_ansv": null, "estado": "No operando" }, "geometry": { "type": "Point", "coordinates": [ -73.26655686, 10.46714611 ] } },
{ "type": "Feature", "properties": { "equipo": "EQUIPO071", "solicitud": 7, "punto": "UNIVERSIDAD ÁREA ANDINA", "direccion": "CALLE 6 - CARRERA 23", "sentido": "OESTE-ESTE", "lon": -73.27257429, "lat": 10.48103108, "estado_solicitud": "APROBADO", "codigos": "C02, C03, C24, C32, C35, D02, D03, D04, D05", "fecha_inicio": "2026-10-02", "codigo_unico": "CU000000000894", "solicitud_ansv": "SOL0000010785", "direccion_ansv": "CALLE 6 - CARRERA 23 (SENTIDO OESTE - ESTE)", "estado": "Operando" }, "geometry": { "type": "Point", "coordinates": [ -73.27257429, 10.48103108 ] } },
{ "type": "Feature", "properties": { "equipo": "EQUIPO081", "solicitud": 8, "punto": "UNIVERSIDAD ÁREA ANDINA", "direccion": "CARRERA 23 - CALLE 5A", "sentido": null, "lon": -73.2725024, "lat": 10.48142154, "estado_solicitud": "APROBADO", "codigos": "C02, C24, C29, C35, D02", "fecha_inicio": null, "codigo_unico": null, "solicitud_ansv": null, "direccion_ansv": null, "estado": "No operando" }, "geometry": { "type": "Point", "coordinates": [ -73.2725024, 10.48142154 ] } },
{ "type": "Feature", "properties": { "equipo": "EQUIPO082", "solicitud": 8, "punto": "UNIVERSIDAD ÁREA ANDINA", "direccion": "TRANSVERSAL 22 BIS - CALLE 3", "sentido": null, "lon": -73.27274893000001, "lat": 10.48324459, "estado_solicitud": "APROBADO", "codigos": "C02, C24, C29, C35, D02", "fecha_inicio": null, "codigo_unico": null, "solicitud_ansv": null, "direccion_ansv": null, "estado": "No operando" }, "geometry": { "type": "Point", "coordinates": [ -73.27274893, 10.48324459 ] } }
]
}
